start=new Date('2023-03-24T00:00:00.000Z').valueOf();
sats=[{"TIME_SYSTEM":"UTC","PERIOD":"95.590","DECAY_DATE":null,"OBJECT_NAME":"STARLINK-1906","BSTAR":"0.00225060000000","CLASSIFICATION_TYPE":"U","MEAN_MOTION":"15.06440012","SEMIMAJOR_AXIS":"6925.226","TLE_LINE1":"1 46765U 20074AC  23082.46250174  .00033437  00000-0  22506-2 0  9992","REV_AT_EPOCH":"13334","CENTER_NAME":"EARTH","EPHEMERIS_TYPE":"0","MEAN_MOTION_DOT":"0.00033437","RCS_SIZE":"LARGE","LAUNCH_DATE":"2020-10-24","GP_ID":"228703221","PERIAPSIS":"546.200","ARG_OF_PERICENTER":"92.8608","ELEMENT_SET_NO":"999","INCLINATION":"53.0540","MEAN_MOTION_DDOT":"0.0000000000000","FILE":"3868494","OBJECT_ID":"2020-074AC","APOAPSIS":"547.982","SITE":"AFETR","RA_OF_ASC_NODE":"154.9252","NORAD_CAT_ID":"46765","MEAN_ANOMALY":"267.2528","MEAN_ELEMENT_THEORY":"SGP4","COUNTRY_CODE":"US","REF_FRAME":"TEME","EPOCH":"2023-03-23T11:06:00.150336","ECCENTRICITY":"0.00012860","TLE_LINE2":"2 46765  53.0540 154.9252 0001286  92.8608 267.2528 15.06440012133344","OBJECT_TYPE":"PAYLOAD"},{"OBJECT_NAME":"STARLINK-1916","BSTAR":"0.00157520000000","DECAY_DATE":null,"TIME_SYSTEM":"UTC","PERIOD":"95.589","MEAN_MOTION":"15.06446813","CLASSIFICATION_TYPE":"U","REV_AT_EPOCH":"13342","TLE_LINE1":"1 46766U 20074AD  23082.91954221  .00023289  00000-0  15752-2 0  9996","SEMIMAJOR_AXIS":"6925.205","MEAN_MOTION_DOT":"0.00023289","EPHEMERIS_TYPE":"0","RCS_SIZE":"LARGE","CENTER_NAME":"EARTH","PERIAPSIS":"546.122","GP_ID":"228737062","ELEMENT_SET_NO":"999","ARG_OF_PERICENTER":"76.4811","LAUNCH_DATE":"2020-10-24","NORAD_CAT_ID":"46766","RA_OF_ASC_NODE":"152.8746","MEAN_MOTION_DDOT":"0.0000000000000","INCLINATION":"53.0532","SITE":"AFETR","APOAPSIS":"548.018","FILE":"3868816","OBJECT_ID":"2020-074AD","EPOCH":"2023-03-23T22:04:08.446944","REF_FRAME":"TEME","MEAN_ELEMENT_THEORY":"SGP4","MEAN_ANOMALY":"283.6331","COUNTRY_CODE":"US","OBJECT_TYPE":"PAYLOAD","TLE_LINE2":"2 46766  53.0532 152.8746 0001369  76.4811 283.6331 15.06446813133425","ECCENTRICITY":"0.00013690"},{"RA_OF_ASC_NODE":"153.0339","NORAD_CAT_ID":"46767","MEAN_MOTION_DDOT":"0.0000000000000","INCLINATION":"53.0550","SITE":"AFETR","APOAPSIS":"548.436","FILE":"3868816","OBJECT_ID":"2020-074AE","PERIAPSIS":"545.706","GP_ID":"228737291","ELEMENT_SET_NO":"999","ARG_OF_PERICENTER":"77.8593","LAUNCH_DATE":"2020-10-24","OBJECT_TYPE":"PAYLOAD","TLE_LINE2":"2 46767  53.0550 153.0339 0001971  77.8593 282.2617 15.06446455133411","ECCENTRICITY":"0.00019710","EPOCH":"2023-03-23T21:11:03.806880","REF_FRAME":"TEME","MEAN_ANOMALY":"282.2617","MEAN_ELEMENT_THEORY":"SGP4","COUNTRY_CODE":"US","MEAN_MOTION":"15.06446455","CLASSIFICATION_TYPE":"U","BSTAR":"0.00222560000000","OBJECT_NAME":"STARLINK-1917","DECAY_DATE":null,"TIME_SYSTEM":"UTC","PERIOD":"95.589","MEAN_MOTION_DOT":"0.00033067","EPHEMERIS_TYPE":"0","RCS_SIZE":"LARGE","CENTER_NAME":"EARTH","REV_AT_EPOCH":"13341","SEMIMAJOR_AXIS":"6925.206","TLE_LINE1":"1 46767U 20074AE  23082.88268295  .00033067  00000-0  22256-2 0  9994"},{"CLASSIFICATION_TYPE":"U","MEAN_MOTION":"15.06449590","TIME_SYSTEM":"UTC","PERIOD":"95.589","BSTAR":"0.00237390000000","OBJECT_NAME":"STARLINK-1918","DECAY_DATE":null,"CENTER_NAME":"EARTH","EPHEMERIS_TYPE":"0","MEAN_MOTION_DOT":"0.00035303","RCS_SIZE":"LARGE","SEMIMAJOR_AXIS":"6925.197","TLE_LINE1":"1 46768U 20074AF  23082.88637521  .00035303  00000-0  23739-2 0  9999","REV_AT_EPOCH":"13341","MEAN_MOTION_DDOT":"0.0000000000000","INCLINATION":"53.0534","SITE":"AFETR","OBJECT_ID":"2020-074AF","FILE":"3868816","APOAPSIS":"548.314","NORAD_CAT_ID":"46768","RA_OF_ASC_NODE":"153.0211","LAUNCH_DATE":"2020-10-24","PERIAPSIS":"545.810","GP_ID":"228735562","ELEMENT_SET_NO":"999","ARG_OF_PERICENTER":"56.0813","ECCENTRICITY":"0.00018080","OBJECT_TYPE":"PAYLOAD","TLE_LINE2":"2 46768  53.0534 153.0211 0001808  56.0813 304.0348 15.06449590133413","MEAN_ANOMALY":"304.0348","MEAN_ELEMENT_THEORY":"SGP4","COUNTRY_CODE":"US","EPOCH":"2023-03-23T21:16:22.818144","REF_FRAME":"TEME"},{"MEAN_ELEMENT_THEORY":"SGP4","MEAN_ANOMALY":"256.6804","COUNTRY_CODE":"US","REF_FRAME":"TEME","EPOCH":"2023-03-23T21:27:05.558976","ECCENTRICITY":"0.00017750","TLE_LINE2":"2 46770  53.0525 153.5407 0001775 103.4383 256.6804 15.06438959133405","OBJECT_TYPE":"PAYLOAD","LAUNCH_DATE":"2020-10-24","GP_ID":"228735812","PERIAPSIS":"545.865","ARG_OF_PERICENTER":"103.4383","ELEMENT_SET_NO":"999","INCLINATION":"53.0525","MEAN_MOTION_DDOT":"0.0000000000000","FILE":"3868816","OBJECT_ID":"2020-074AH","APOAPSIS":"548.323","SITE":"AFETR","NORAD_CAT_ID":"46770","RA_OF_ASC_NODE":"153.5407","SEMIMAJOR_AXIS":"6925.229","TLE_LINE1":"1 46770U 20074AH  23082.89381434  .00019901  00000-0  13497-2 0  9998","REV_AT_EPOCH":"13340","CENTER_NAME":"EARTH","MEAN_MOTION_DOT":"0.00019901","EPHEMERIS_TYPE":"0","RCS_SIZE":"LARGE","TIME_SYSTEM":"UTC","PERIOD":"95.590","DECAY_DATE":null,"OBJECT_NAME":"STARLINK-1932","BSTAR":"0.00134970000000","CLASSIFICATION_TYPE":"U","MEAN_MOTION":"15.06438959"},{"RA_OF_ASC_NODE":"152.9850","NORAD_CAT_ID":"46772","SITE":"AFETR","OBJECT_ID":"2020-074AK","FILE":"3868816","APOAPSIS":"548.171","MEAN_MOTION_DDOT":"0.0000000000000","INCLINATION":"53.0533","ELEMENT_SET_NO":"999","ARG_OF_PERICENTER":"107.9389","PERIAPSIS":"546.027","GP_ID":"228736563","LAUNCH_DATE":"2020-10-24","OBJECT_TYPE":"PAYLOAD","TLE_LINE2":"2 46772  53.0533 152.9850 0001548 107.9389 252.1769 15.06437514133412","ECCENTRICITY":"0.00015480","EPOCH":"2023-03-23T21:25:38.105760","REF_FRAME":"TEME","COUNTRY_CODE":"US","MEAN_ANOMALY":"252.1769","MEAN_ELEMENT_THEORY":"SGP4","MEAN_MOTION":"15.06437514","CLASSIFICATION_TYPE":"U","BSTAR":"0.00122710000000","OBJECT_NAME":"STARLINK-1936","DECAY_DATE":null,"PERIOD":"95.590","TIME_SYSTEM":"UTC","RCS_SIZE":"LARGE","EPHEMERIS_TYPE":"0","MEAN_MOTION_DOT":"0.00018062","CENTER_NAME":"EARTH","REV_AT_EPOCH":"13341","TLE_LINE1":"1 46772U 20074AK  23082.89280215  .00018062  00000-0  12271-2 0  9991","SEMIMAJOR_AXIS":"6925.234"},{"EPOCH":"2023-03-23T08:03:17.898048","REF_FRAME":"TEME","COUNTRY_CODE":"US","MEAN_ANOMALY":"324.0128","MEAN_ELEMENT_THEORY":"SGP4","OBJECT_TYPE":"PAYLOAD","TLE_LINE2":"2 46774  53.0419 109.3170 0010483  36.1590 324.0128 15.58023633133994","ECCENTRICITY":"0.00104830","ELEMENT_SET_NO":"999","ARG_OF_PERICENTER":"36.1590","PERIAPSIS":"386.281","GP_ID":"228702236","LAUNCH_DATE":"2020-10-24","RA_OF_ASC_NODE":"109.3170","NORAD_CAT_ID":"46774","SITE":"AFETR","FILE":"3868494","OBJECT_ID":"2020-074AM","APOAPSIS":"400.478","MEAN_MOTION_DDOT":"0.0000000000000","INCLINATION":"53.0419","REV_AT_EPOCH":"13399","TLE_LINE1":"1 46774U 20074AM  23082.33562382  .00335922  00000-0  42160-2 0  9997","SEMIMAJOR_AXIS":"6771.515","RCS_SIZE":"LARGE","EPHEMERIS_TYPE":"0","MEAN_MOTION_DOT":"0.00335922","CENTER_NAME":"EARTH","BSTAR":"0.00421600000000","OBJECT_NAME":"STARLINK-1939","DECAY_DATE":null,"PERIOD":"92.425","TIME_SYSTEM":"UTC","MEAN_MOTION":"15.58023633","CLASSIFICATION_TYPE":"U"},{"MEAN_MOTION":"15.06416649","CLASSIFICATION_TYPE":"U","BSTAR":"0.00191160000000","OBJECT_NAME":"STARLINK-1798","DECAY_DATE":null,"TIME_SYSTEM":"UTC","PERIOD":"95.591","EPHEMERIS_TYPE":"0","MEAN_MOTION_DOT":"0.00028320","RCS_SIZE":"LARGE","CENTER_NAME":"EARTH","REV_AT_EPOCH":"13347","TLE_LINE1":"1 46779U 20074AS  23082.85740062  .00028320  00000-0  19116-2 0  9998","SEMIMAJOR_AXIS":"6925.298","NORAD_CAT_ID":"46779","RA_OF_ASC_NODE":"128.1515","MEAN_MOTION_DDOT":"0.0000000000000","INCLINATION":"53.0509","SITE":"AFETR","FILE":"3868608","OBJECT_ID":"2020-074AS","APOAPSIS":"548.226","PERIAPSIS":"546.099","GP_ID":"228712575","ELEMENT_SET_NO":"999","ARG_OF_PERICENTER":"83.0988","LAUNCH_DATE":"2020-10-24","OBJECT_TYPE":"PAYLOAD","TLE_LINE2":"2 46779  53.0509 128.1515 0001535  83.0988 277.0175 15.06416649133479","ECCENTRICITY":"0.00015350","EPOCH":"2023-03-23T20:34:39.413568","REF_FRAME":"TEME","MEAN_ANOMALY":"277.0175","MEAN_ELEMENT_THEORY":"SGP4","COUNTRY_CODE":"US"},{"OBJECT_NAME":"STARLINK-1832","BSTAR":"0.00172170000000","DECAY_DATE":null,"PERIOD":"95.592","TIME_SYSTEM":"UTC","MEAN_MOTION":"15.06407757","CLASSIFICATION_TYPE":"U","REV_AT_EPOCH":"13348","TLE_LINE1":"1 46780U 20074AT  23082.84629784  .00025462  00000-0  17217-2 0  9990","SEMIMAJOR_AXIS":"6925.325","RCS_SIZE":"LARGE","MEAN_MOTION_DOT":"0.00025462","EPHEMERIS_TYPE":"0","CENTER_NAME":"EARTH","ELEMENT_SET_NO":"999","ARG_OF_PERICENTER":"76.3017","PERIAPSIS":"545.680","GP_ID":"228712077","LAUNCH_DATE":"2020-10-24","NORAD_CAT_ID":"46780","RA_OF_ASC_NODE":"128.2036","SITE":"AFETR","APOAPSIS":"548.700","FILE":"3868608","OBJECT_ID":"2020-074AT","MEAN_MOTION_DDOT":"0.0000000000000","INCLINATION":"53.0510","EPOCH":"2023-03-23T20:18:40.133376","REF_FRAME":"TEME","COUNTRY_CODE":"US","MEAN_ANOMALY":"283.8215","MEAN_ELEMENT_THEORY":"SGP4","OBJECT_TYPE":"PAYLOAD","TLE_LINE2":"2 46780  53.0510 128.2036 0002180  76.3017 283.8215 15.06407757133488","ECCENTRICITY":"0.00021800"},{"TLE_LINE2":"2 46781  53.0522 138.1227 0001314 103.7354 256.3781 15.06441320133354","OBJECT_TYPE":"PAYLOAD","ECCENTRICITY":"0.00013140","REF_FRAME":"TEME","EPOCH":"2023-03-23T20:43:52.170528","MEAN_ANOMALY":"256.3781","MEAN_ELEMENT_THEORY":"SGP4","COUNTRY_CODE":"US","RA_OF_ASC_NODE":"138.1227","NORAD_CAT_ID":"46781","INCLINATION":"53.0522","MEAN_MOTION_DDOT":"0.0000000000000","APOAPSIS":"547.997","FILE":"3868609","OBJECT_ID":"2020-074AU","SITE":"AFETR","GP_ID":"228712083","PERIAPSIS":"546.177","ARG_OF_PERICENTER":"103.7354","ELEMENT_SET_NO":"999","LAUNCH_DATE":"2020-10-24","EPHEMERIS_TYPE":"0","MEAN_MOTION_DOT":"0.00018316","RCS_SIZE":"LARGE","CENTER_NAME":"EARTH","REV_AT_EPOCH":"13335","SEMIMAJOR_AXIS":"6925.222","TLE_LINE1":"1 46781U 20074AU  23082.86379827  .00018316  00000-0  12439-2 0  9994","MEAN_MOTION":"15.06441320","CLASSIFICATION_TYPE":"U","DECAY_DATE":null,"OBJECT_NAME":"STARLINK-1834","BSTAR":"0.00124390000000","TIME_SYSTEM":"UTC","PERIOD":"95.590"}];
